OBJECT_NAME,OBJECT_ID,EPOCH,MEAN_MOTION,ECCENTRICITY,INCLINATION,RA_OF_ASC_NODE,ARG_OF_PERICENTER,MEAN_ANOMALY,EPHEMERIS_TYPE,CLASSIFICATION_TYPE,NORAD_CAT_ID,ELEMENT_SET_NO,REV_AT_EPOCH,BSTAR,MEAN_MOTION_DOT,MEAN_MOTION_DDOT
SUOMI NPP,2011-061A,2026-07-22T07:14:14.195616,14.19523719,.00011148,98.7956,143.9391,183.3943,176.7225,0,U,37849,999,76342,.47259671E-4,.55E-6,0
YAOGAN-12,2011-066B,2026-07-22T06:19:49.272672,15.26930169,.00110709,97.1128,240.1865,100.9176,259.3310,0,U,37875,999,81739,.83744794E-4,.2149E-4,0
BEIDOU-2 M4,2012-018B,2026-07-20T22:47:10.972320,1.86229353,.00122504,55.6263,302.9476,272.0854,87.8062,0,U,38251,999,9657,0,-.102E-5,0
ARIRANG-3 (KOMPSAT-3),2012-025B,2026-07-22T06:34:41.954880,14.62233527,.00057591,98.1190,160.1332,19.3939,340.7481,0,U,38338,999,75647,.80378659E-4,.358E-5,0
METOP-B,2012-049A,2026-07-22T07:33:04.524480,14.21447795,.00013758,98.6484,254.1095,218.6308,141.4771,0,U,38771,999,71825,.48828924E-4,.63E-6,0
SJ-9A,2012-056A,2026-07-22T06:11:54.538368,14.85539008,.00265382,97.6735,173.9476,139.2134,221.1075,0,U,38860,999,70479,.10304723E-3,.843E-5,0
COSMOS 2484 (RODNIK-S 6),2013-001C,2026-07-22T07:43:16.310784,12.42940386,.00253856,82.5007,200.0484,319.7356,40.1843,0,U,39059,999,61292,-.53222884E-4,.2E-7,0
SARAL,2013-009A,2026-07-22T05:38:26.004480,14.32897009,.00021106,98.5560,29.3595,151.0491,209.0810,0,U,39086,999,70062,.35460185E-4,.53E-6,0
STRAND-1,2013-009E,2026-07-22T00:08:31.036992,14.37181893,.00097006,98.3941,22.3864,122.8343,237.3779,0,U,39090,999,70206,.95889297E-4,.243E-5,0
BRITE-AUSTRIA,2013-009F,2026-07-22T00:48:50.316480,14.36554513,.00111077,98.4015,21.6105,131.8384,228.3753,0,U,39091,999,70205,.62805575E-4,.142E-5,0
GAOFEN-1,2013-018A,2026-07-22T07:15:15.568128,14.76523956,.00177086,97.9076,274.6533,148.9159,211.3103,0,U,39150,999,71342,.77414573E-4,.49E-5,0
NEE-01 PEGASO,2013-018B,2026-07-21T21:32:56.685984,14.93813562,.00135033,98.1266,348.2068,54.1935,306.0536,0,U,39151,999,71588,.21195884E-3,.2191E-4,0
PROBA-V,2013-021A,2026-07-21T21:50:23.964576,14.23604343,.00049845,98.3611,179.8069,44.0739,316.0837,0,U,39159,999,68605,.42035876E-4,.55E-6,0
ARIRANG-5 (KOMPSAT-5),2013-042A,2026-07-22T06:46:48.519264,15.04499638,.00045025,97.6203,29.4899,36.7996,323.3539,0,U,39227,999,70913,.7439973E-5,.44E-6,0
GONETS-M 5,2013-048A,2026-07-22T07:00:31.099104,12.42893634,.00175667,82.4856,321.4979,135.0149,225.2357,0,U,39249,999,58324,.1618096E-2,.234E-5,0
GONETS-M 7,2013-048C,2026-07-22T08:02:10.285728,12.42916169,.00183645,82.4924,324.4117,136.1392,224.1150,0,U,39251,999,58320,.10977992E-2,.162E-5,0
FENGYUN 3C,2013-052A,2026-07-22T05:44:20.665248,14.15761954,.00134636,98.5006,175.5093,284.0743,75.8935,0,U,39260,999,66352,.6036666E-4,.77E-6,0
CASSIOPE,2013-055A,2026-07-22T05:26:25.685952,15.27662734,.02816817,80.9138,24.0679,303.9877,53.4879,0,U,39265,999,67301,.23374423E-3,.21795E-3,-.46075E-6
APRIZESAT 7,2013-066A,2026-07-22T07:20:26.358432,14.91631194,.00373734,97.7724,156.0258,94.6844,265.8644,0,U,39416,999,68646,.95550949E-4,.915E-5,0
ZACUBE-1 (TSHEPISOSAT),2013-066B,2026-07-20T20:47:42.553536,15.01347026,.00440791,97.7999,164.3670,137.0238,223.4444,0,U,39417,999,68578,.14536999E-3,.1847E-4,0
APRIZESAT 8,2013-066K,2026-07-22T02:48:09.909504,14.87704502,.00460881,97.8232,150.1014,169.0703,191.1526,0,U,39425,999,68486,.80274694E-4,.688E-5,0
