SUOMI NPP               
1 37849U 11061A   26203.30155319  .00000055  00000+0  47260-4 0  9992
2 37849  98.7956 143.9391 0001114 183.3943 176.7225 14.19523719763429
YAOGAN-12               
1 37875U 11066B   26203.26376473  .00002149  00000+0  83745-4 0  9991
2 37875  97.1128 240.1865 0011070 100.9176 259.3310 15.26930169817392
BEIDOU-2 M4             
1 38251U 12018B   26201.94943255 -.00000102  00000+0  00000+0 0  9995
2 38251  55.6263 302.9476 0012250 272.0854  87.8062  1.86229353 96574
ARIRANG-3 (KOMPSAT-3)   
1 38338U 12025B   26203.27409670  .00000358  00000+0  80379-4 0  9999
2 38338  98.1190 160.1332 0005759  19.3939 340.7481 14.62233527756472
METOP-B                 
1 38771U 12049A   26203.31463570  .00000063  00000+0  48829-4 0  9997
2 38771  98.6484 254.1095 0001375 218.6308 141.4771 14.21447795718259
SJ-9A                   
1 38860U 12056A   26203.25827012  .00000843  00000+0  10305-3 0  9995
2 38860  97.6735 173.9476 0026538 139.2134 221.1075 14.85539008704796
COSMOS 2484 (RODNIK-S 6)
1 39059U 13001C   26203.32171656  .00000002  00000+0 -53223-4 0  9996
2 39059  82.5007 200.0484 0025385 319.7356  40.1843 12.42940386612924
SARAL                   
1 39086U 13009A   26203.23502320  .00000053  00000+0  35460-4 0  9998
2 39086  98.5560  29.3595 0002110 151.0491 209.0810 14.32897009700627
STRAND-1                
1 39090U 13009E   26203.00591478  .00000243  00000+0  95889-4 0  9992
2 39090  98.3941  22.3864 0009700 122.8343 237.3779 14.37181893702069
BRITE-AUSTRIA           
1 39091U 13009F   26203.03391570  .00000142  00000+0  62806-4 0  9998
2 39091  98.4015  21.6105 0011107 131.8384 228.3753 14.36554513702055
GAOFEN-1                
1 39150U 13018A   26203.30226352  .00000490  00000+0  77415-4 0  9997
2 39150  97.9076 274.6533 0017708 148.9159 211.3103 14.76523956713424
NEE-01 PEGASO           
1 39151U 13018B   26202.89787831  .00002191  00000+0  21196-3 0  9999
2 39151  98.1266 348.2068 0013503  54.1935 306.0536 14.93813562715887
PROBA-V                 
1 39159U 13021A   26202.90999959  .00000055  00000+0  42036-4 0  9993
2 39159  98.3611 179.8069 0004984  44.0739 316.0837 14.23604343686052
ARIRANG-5 (KOMPSAT-5)   
1 39227U 13042A   26203.28250601  .00000044  00000+0  74400-5 0  9997
2 39227  97.6203  29.4899 0004502  36.7996 323.3539 15.04499638709131
GONETS-M 5              
1 39249U 13048A   26203.29202661  .00000234  00000+0  16181-2 0  9991
2 39249  82.4856 321.4979 0017566 135.0149 225.2357 12.42893634583245
GONETS-M 7              
1 39251U 13048C   26203.33484127  .00000162  00000+0  10978-2 0  9996
2 39251  82.4924 324.4117 0018364 136.1392 224.1150 12.42916169583204
FENGYUN 3C              
1 39260U 13052A   26203.23912807  .00000077  00000+0  60367-4 0  9995
2 39260  98.5006 175.5093 0013463 284.0743  75.8935 14.15761954663527
CASSIOPE                
1 39265U 13055A   26203.22668618  .00021795 -46075-6  23374-3 0  9996
2 39265  80.9138  24.0679 0281681 303.9877  53.4879 15.27662734673013
APRIZESAT 7             
1 39416U 13066A   26203.30586063  .00000915  00000+0  95551-4 0  9996
2 39416  97.7724 156.0258 0037373  94.6844 265.8644 14.91631194686460
ZACUBE-1 (TSHEPISOSAT)  
1 39417U 13066B   26201.86646474  .00001847  00000+0  14537-3 0  9998
2 39417  97.7999 164.3670 0044079 137.0238 223.4444 15.01347026685787
APRIZESAT 8             
1 39425U 13066K   26203.11678136  .00000688  00000+0  80275-4 0  9992
2 39425  97.8232 150.1014 0046088 169.0703 191.1526 14.87704502684865
